NSS-10                  
1 28526U 05003A   26087.82253885 -.00000266  00000+0  00000+0 0  9998
2 28526   6.2498  71.4127 0003262 291.2220  82.2564  1.00271945 52358
